     2.10           N: GPS NAV DATA                         RINEX VERSION / TYPE
teqc  2012Jun6                          20190301 21:13:40UTCPGM / RUN BY / DATE
MSXP|IAx86-PII|bcc32 5.0|MSWin95->XP|486/DX+                COMMENT
                                                            END OF HEADER
16 19  2 26 16  0  0.0-2.179201692343D-05-2.501110429876D-12 0.000000000000D+00
    1.100000000000D+01 3.678125000000D+01 4.066598169317D-09-1.079248291800D+00
    1.963227987289D-06 1.064536150079D-02 4.647299647331D-06 5.153781417847D+03
    2.304000000000D+05 2.421438694000D-07 2.918098296198D+00-4.656612873077D-08
    9.843824138559D-01 3.017812500000D+02 5.445256397586D-01-8.051406652498D-09
   -7.107438942944D-11 1.000000000000D+00 2.042000000000D+03 0.000000000000D+00
    2.000000000000D+00 0.000000000000D+00-1.071020960808D-08 1.100000000000D+01
    2.278200000000D+05
21 19  2 26 16  0  0.0-2.427408471704D-04 7.275957614183D-12 0.000000000000D+00
    1.100000000000D+01-3.593750000000D+01 4.890203797459D-09 4.041504679521D-01
   -1.965090632439D-06 2.477715990972D-02 8.679926395416D-06 5.153784971237D+03
    2.304000000000D+05-3.129243850708D-07-1.412548174256D+00-2.738088369370D-07
    9.470965833571D-01 2.132187500000D+02-1.472174039489D+00-8.641074522586D-09
    7.536028051591D-11 1.000000000000D+00 2.042000000000D+03 0.000000000000D+00
    2.000000000000D+00 0.000000000000D+00-1.024454832077D-08 1.100000000000D+01
    2.278200000000D+05
10 19  2 26 15 59 44.0 1.087784767151D-04-7.958078640513D-12 0.000000000000D+00
    1.000000000000D+01-1.400000000000D+01 4.704838740821D-09 1.200191099977D-01
   -6.668269634247D-07 4.368528141640D-03 7.200986146927D-06 5.153658502579D+03
    2.303840000000D+05 3.166496753693D-08-3.113287137363D-01 8.381903171539D-08
    9.627788281741D-01 2.423750000000D+02-2.741952667826D+00-8.132124307281D-09
    2.403671428564D-10 1.000000000000D+00 2.042000000000D+03 0.000000000000D+00
    2.000000000000D+00 0.000000000000D+00 1.862645149231D-09 1.000000000000D+01
    2.279100000000D+05
15 19  2 26 16  0  0.0-3.260644152761D-04 1.818989403546D-12 0.000000000000D+00
    6.900000000000D+01-9.375000000000D+00 5.486656906584D-09-2.825660635513D+00
   -6.947666406631D-07 1.123224734329D-02 7.959082722664D-06 5.153642225266D+03
    2.304000000000D+05 3.166496753693D-08 6.464216422161D-01-2.644956111908D-07
    9.282160251118D-01 2.086250000000D+02 7.645138184635D-01-8.329275935637D-09
   -9.536111483799D-11 1.000000000000D+00 2.042000000000D+03 0.000000000000D+00
    2.000000000000D+00 0.000000000000D+00-1.071020960808D-08 6.900000000000D+01
    2.279100000000D+05
20 19  2 26 16  0  0.0 5.225916393101D-04 3.410605131648D-13 0.000000000000D+00
    4.500000000000D+01-1.025000000000D+01 5.393081980998D-09 1.851723493316D+00
   -5.457550287247D-07 4.396705655381D-03 6.901100277901D-06 5.153671466827D+03
    2.304000000000D+05 5.774199962616D-08-4.267354068769D-01 5.215406417847D-08
    9.303442315201D-01 2.296875000000D+02 2.292520713078D+00-8.399992701413D-09
    2.396528531179D-10 1.000000000000D+00 2.042000000000D+03 0.000000000000D+00
    2.000000000000D+00 0.000000000000D+00-8.381903171539D-09 4.500000000000D+01
    2.279100000000D+05
26 19  2 26 16  0  0.0 1.349798403680D-04 1.023181539495D-11 0.000000000000D+00
    1.000000000000D+01 4.556250000000D+01 4.806271824975D-09-1.624192626028D-01
    2.266839146614D-06 3.682449110784D-03 4.563480615616D-06 5.153560789108D+03
    2.304000000000D+05 5.774199962616D-08 2.809119012637D+00-2.235174179077D-08
    9.527810309715D-01 2.866250000000D+02 1.164501457931D-01-8.446066068757D-09
   -1.003613234185D-10 1.000000000000D+00 2.042000000000D+03 0.000000000000D+00
    2.000000000000D+00 0.000000000000D+00 7.450580596924D-09 1.000000000000D+01
    2.279100000000D+05
27 19  2 26 16  0  0.0-7.531465962529D-05-7.617018127348D-12 0.000000000000D+00
    5.700000000000D+01-5.331250000000D+01 3.999095277152D-09-1.934274990614D+00
   -2.754852175713D-06 6.750473403372D-03 6.133690476418D-06 5.153637586594D+03
    2.304000000000D+05-2.980232238770D-08-2.406607516177D+00-5.401670932770D-08
    9.784903708515D-01 2.706250000000D+02 4.348584292105D-01-7.930330170325D-09
   -7.321733497268D-11 1.000000000000D+00 2.042000000000D+03 0.000000000000D+00
    2.000000000000D+00 0.000000000000D+00 1.396983861923D-09 5.700000000000D+01
    2.279100000000D+05
29 19  2 26 16  0  0.0 2.616182900965D-04-8.753886504564D-12 0.000000000000D+00
    1.420000000000D+02-4.134375000000D+01 3.946950322131D-09-1.118715817381D+00
   -2.203509211540D-06 7.413441780955D-04 6.070360541344D-06 5.153560020447D+03
    2.304000000000D+05-1.117587089539D-08-2.339986188812D+00 1.862645149231D-08
    9.853414473578D-01 2.750000000000D+02 1.452126142837D+00-7.915329724995D-09
   -9.714690163420D-11 1.000000000000D+00 2.042000000000D+03 0.000000000000D+00
    2.800000000000D+00 0.000000000000D+00-1.024454832077D-08 1.420000000000D+02
    2.279100000000D+05
31 19  2 26 16  0  0.0 5.590543150902D-05-2.728484105319D-12 0.000000000000D+00
    4.100000000000D+01 6.296875000000D+01 4.569475908767D-09 1.149753413582D+00
    3.509223461151D-06 9.261569124646D-03 8.467584848404D-06 5.153570650101D+03
    2.304000000000D+05 5.774199962616D-08 1.814586606896D+00 1.359730958939D-07
    9.604300663845D-01 2.128750000000D+02-1.173355242956D-02-8.037477350342D-09
   -2.575107349578D-10 1.000000000000D+00 2.042000000000D+03 0.000000000000D+00
    2.000000000000D+00 0.000000000000D+00-1.350417733192D-08 4.100000000000D+01
    2.279100000000D+05
32 19  2 26 16  0  0.0-2.074018120766D-04 1.898570189951D-11 0.000000000000D+00
    7.100000000000D+01-1.812500000000D+00 4.823057953018D-09-1.209181720506D+00
   -7.636845111847D-08 2.627228852361D-03 8.421018719673D-06 5.153754985809D+03
    2.304000000000D+05 3.911554813385D-08 7.304304882646D-01 2.607703208923D-08
    9.569377985861D-01 2.150000000000D+02-2.606464643040D+00-8.044263921647D-09
   -1.335769966859D-10 1.000000000000D+00 2.042000000000D+03 0.000000000000D+00
    2.000000000000D+00 0.000000000000D+00 4.656612873077D-10 7.100000000000D+01
    2.281500000000D+05
